GALAXY 11 (G-11)        
1 26038U 99071A   24360.38830872 -.00000087  00000+0  00000+0 0  9993
2 26038   5.3701  77.0486 0003563 258.1790 270.5787  0.99038001 91677
INTELSAT 9 (IS-9)       
1 26451U 00043A   24360.21577250  .00000005  00000+0  00000+0 0  9992
2 26451   9.2029  54.0383 0003077 218.0425 326.0525  1.00273714 38733
INTELSAT 1R (IS-1R)     
1 26608U 00072A   24360.56221137 -.00000200  00000+0  00000+0 0  9994
2 26608   6.7308  70.6524 0008823 223.6235 172.2663  0.98975917 35905
INTELSAT 10 (IS-10)     
1 26766U 01019A   24359.75614758  .00000011  00000+0  00000+0 0  9994
2 26766   7.7818  64.7601 0004261 214.8093 152.4949  1.00272785 40217
INTELSAT 901 (IS-901)   
1 26824U 01024A   24360.32410507 -.00000175  00000+0  00000+0 0  9998
2 26824   0.0280  79.7416 0001521 240.5061 223.2562  1.00270701 17586
INTELSAT 902 (IS-902)   
1 26900U 01039A   24360.51906399 -.00000259  00000+0  00000+0 0  9992
2 26900   4.7503  78.3544 0005130 199.2128 313.7275  1.00270972 85290
INTELSAT 904 (IS-904)   
1 27380U 02007A   24360.45173153 -.00000192  00000+0  00000+0 0  9994
2 27380   5.5649  75.6188 0002891 204.7079 307.2481  1.00272439 46367
DIRECTV 5 (TEMPO 1)     
1 27426U 02023A   24360.43574550 -.00000032  00000+0  00000+0 0  9990
2 27426   3.4950  82.0690 0003190 192.1644 226.9492  1.00271872 82720
INTELSAT 905 (IS-905)   
1 27438U 02027A   24360.45277410 -.00000162  00000+0  00000+0 0  9998
2 27438   5.3917  76.2577 0002602 204.9765 311.7321  1.00272155 45963
GALAXY 3C (G-3C)        
1 27445U 02030A   24360.36728361 -.00000127  00000+0  00000+0 0  9997
2 27445   2.3516  84.8997 0002717  64.7324 342.0953  1.00271680 41094
INTELSAT 906 (IS-906)   
1 27513U 02041A   24360.39882126  .00000037  00000+0  00000+0 0  9997
2 27513   4.4278  79.5702 0006606 186.7479  35.7703  1.00271786 81629
GALAXY 23 (G-23)        
1 27854U 03034A   24360.07635615  .00000037  00000+0  00000+0 0  9992
2 27854   1.8012  86.5243 0002728 190.9770  83.1866  1.00272586 78334
GALAXY 13 (HORIZONS-1)  
1 27954U 03044A   24360.51368774  .00000160  00000+0  00000+0 0  9999
2 27954   0.0355  92.4271 0002380  87.3868 309.6235  1.00267499 41179
INTELSAT 10-02          
1 28358U 04022A   24360.40466204  .00000016  00000+0  00000+0 0  9990
2 28358   0.0208  13.5399 0001069 316.8590 268.7229  1.00269046 75158
XM-3 (RHYTHM)           
1 28626U 05008A   24358.14146661 -.00000185  00000+0  00000+0 0  9991
2 28626   0.0100 349.3445 0004652 230.4559 198.1369  1.00267203 37192
DIRECTV 8               
1 28659U 05019A   24360.50542372  .00000028  00000+0  00000+0 0  9996
2 28659   0.0156  32.1110 0002907 250.7627 234.5426  1.00272846 71788
GALAXY 28 (G-28)        
1 28702U 05022A   24360.51133161 -.00000159  00000+0  00000+0 0  9998
2 28702   1.9071  85.6643 0006934 189.8998 274.0061  1.00271800 46587
GALAXY 14 (G-14)        
1 28790U 05030A   24360.38830872 -.00000084  00000+0  00000+0 0  9999
2 28790   3.6308  81.4861 0001008 186.7654 339.1950  0.98945591 70896
SPACEWAY 2              
1 28903U 05046B   24360.60925882  .00000048  00000+0  00000+0 0  9992
2 28903   4.0878  77.9399 0002109  76.4108 242.5312  0.99059813 45937
GALAXY 16 (G-16)        
1 29236U 06023A   24360.50942024 -.00000099  00000+0  00000+0 0  9991
2 29236   0.0099 291.7799 0002554 353.1551 253.9544  1.00271783 67571
DIRECTV 9S              
1 29494U 06043A   24360.50898583 -.00000086  00000+0  00000+0 0  9995
2 29494   1.0264  87.5011 0002952 192.8730 256.1607  1.00271719 45984
GALAXY 17 (G-17)        
1 31307U 07016B   24360.51220042 -.00000180  00000+0  00000+0 0  9997
2 31307   1.6030  86.8445 0007300 207.5522 259.5116  1.00272877 64401
DIRECTV 10              
1 31862U 07032A   24360.50863830 -.00000076  00000+0  00000+0 0  9992
2 31862   0.0067 112.2096 0000418 206.7903 215.8262  1.00272959 40191
INTELSAT 11 (IS-11)     
1 32253U 07044B   24360.44903823 -.00000243  00000+0  00000+0 0  9996
2 32253   2.1602  85.3809 0004274 204.9196 282.7831  1.00270411 63094
HORIZONS-2              
1 32388U 07063B   24360.51437243 -.00000227  00000+0  00000+0 0  9994
2 32388   1.2081  87.3710 0001843 191.6417 286.8891  1.00271303 62411
DIRECTV 11              
1 32729U 08013A   24360.50933334 -.00000099  00000+0  00000+0 0  9997
2 32729   0.0181 182.5478 0000321  52.6906 303.4486  1.00273440 40197
GALAXY 18 (G-18)        
1 32951U 08024A   24360.59173078  .00000053  00000+0  00000+0 0  9995
2 32951   0.0167 327.2782 0002845 305.2510 272.0740  1.00270727 40453
INTELSAT 25 (IS-25)     
1 33153U 08034A   24360.45129713 -.00000197  00000+0  00000+0 0  9993
2 33153   1.3148  87.0419 0003023 192.1945 306.1799  1.00272973 60295
GALAXY 19 (G-19)        
1 33376U 08045A   24360.45170891 -.00000112  00000+0  00000+0 0  9992
2 33376   0.0232 290.0870 0002826 356.6723 233.3104  1.00271962 59500
FM-5                    
1 35493U 09034A   24360.51193977 -.00000173  00000+0  00000+0 0  9997
2 35493   0.0140 323.9304 0001439 196.1795  32.5594  1.00270970 41245
INTELSAT 14 (IS-14)     
1 36097U 09064A   24360.32966241 -.00000247  00000+0  00000+0 0  9994
2 36097   0.0096   6.1656 0002333 271.6229 250.2197  1.00270339 55209
INTELSAT 15 (IS-15)     
1 36106U 09067A   24360.33157569 -.00000159  00000+0  00000+0 0  9996
2 36106   0.0133 305.6570 0002187 336.1952  16.9853  1.00273369 35829
DIRECTV 12              
1 36131U 09075A   24360.45539194 -.00000076  00000+0  00000+0 0  9992
2 36131   0.0081  76.1068 0000512 268.8379 170.7185  1.00270103 41158
INTELSAT 16 (IS-16)     
1 36397U 10006A   24360.51393802 -.00000217  00000+0  00000+0 0  9990
2 36397   0.0097  19.4433 0002042 254.6936 289.1919  1.00272737 54257
XM-5                    
1 37185U 10053A   24360.29187125  .00000004  00000+0  00000+0 0  9995
2 37185   0.0181  17.5482 0000658 132.2601 294.3637  1.00271032 52082
INTELSAT 17 (IS-17)     
1 37238U 10065B   24360.54217421  .00000025  00000+0  00000+0 0  9991
2 37238   0.0286  61.0517 0002533 228.3463  66.3218  1.00273390 47835
INTELSAT 28 (IS-28)     
1 37392U 11016A   24360.24751087  .00000141  00000+0  00000+0 0  9996
2 37392   0.4092  90.0717 0004218 180.9703 293.9900  1.00130622 47882
INTELSAT 18 (IS-18)     
1 37834U 11056A   24360.57601323  .00000080  00000+0  00000+0 0  9996
2 37834   0.0172 331.2132 0001246 287.0338 223.6884  1.00272395 48415
INTELSAT 22 (IS-22)     
1 38098U 12011A   24360.54339053 -.00000032  00000+0  00000+0 0  9994
2 38098   0.0373  56.1815 0001973 237.9091  68.1749  1.00271908  1789
INTELSAT 19 (IS-19)     
1 38356U 12030A   24360.55777688 -.00000029  00000+0  00000+0 0  9999
2 38356   0.0081 356.0001 0002893 281.9299 183.4281  1.00272128 45046
INTELSAT 20 (IS-20)     
1 38740U 12043A   24359.88035562  .00000001  00000+0  00000+0 0  9991
2 38740   0.0124  65.0316 0002902 116.8810 297.4025  1.00271538 45342
INTELSAT 21 (IS-21)     
1 38749U 12045A   24360.44608429 -.00000258  00000+0  00000+0 0  9999
2 38749   0.0405 277.8510 0001972 343.5238 295.6580  1.00270951 45121
INTELSAT 23 (IS-23)     
1 38867U 12057A   24359.07549234 -.00000261  00000+0  00000+0 0  9992
2 38867   0.0400 207.1080 0001271 210.4417   9.6984  1.00264905 44524
FM-6                    
1 39360U 13058A   24360.50603189  .00000011  00000+0  00000+0 0  9995
2 39360   0.0336  43.4760 0000378 135.6879 341.3258  1.00269131 40661
INTELSAT 30 (IS-30)     
1 40271U 14062A   24359.33938095 -.00000127  00000+0  00000+0 0  9999
2 40271   0.0117  20.7357 0001152 358.4892 101.2652  1.00271866  1376
DIRECTV 14              
1 40333U 14078B   24360.50933334 -.00000098  00000+0  00000+0 0  9994
2 40333   0.0178 323.0710 0000383 216.4447 359.1309  1.00274062 36662
DIRECTV 15              
1 40663U 15026A   24360.50863830 -.00000075  00000+0  00000+0 0  9992
2 40663   0.0156  35.0470 0000776 127.9766  11.7325  1.00271374 35068
SKY MEXICO-1            
1 40664U 15026B   24360.34632694 -.00000207  00000+0  00000+0 0  9994
2 40664   0.0260 338.2307 0002446 311.6597 210.3682  1.00271073 35050
INTELSAT 34 (IS-34)     
1 40874U 15039A   24360.33521678 -.00000258  00000+0  00000+0 0  9995
2 40874   0.0178 356.6467 0000441 174.8275 348.0493  1.00271281 34225
INTELSAT 31 (IS-31)     
1 41581U 16035A   24359.26646644 -.00000127  00000+0  00000+0 0  9994
2 41581   0.0188  88.8092 0001765  86.2312 279.1014  1.00272312 31279
INTELSAT 36 (IS-36)     
1 41747U 16053A   24360.54260861  .00000002  00000+0  00000+0 0  9995
2 41747   0.0118  15.6345 0001170 338.6781   4.0834  1.00272075 30549
INTELSAT 32E (IS-32E)   
1 41945U 17007B   24360.44903823 -.00000242  00000+0  00000+0 0  9993
2 41945   0.0112  48.9869 0000489  71.5246  92.4049  1.00269767 28825
INTELSAT 35E (IS-35E)   
1 42818U 17041A   24360.32948880 -.00000211  00000+0  00000+0 0  9996
2 42818   0.0038  86.2741 0002242 199.6231 252.5624  1.00272069 27412
INTELSAT 37E (IS-37E)   
1 42950U 17059A   24360.41577355 -.00000114  00000+0  00000+0 0  9999
2 42950   0.0033  91.7488 0002760 175.4497 318.8966  1.00271686 26669
AZERSPACE 2 (IS-38)     
1 43632U 18074A   24360.53800396  .00000163  00000+0  00000+0 0  9995
2 43632   0.0179   7.9398 0001821 300.3220  25.0629  1.00271975 23040
HORIZONS-3E             
1 43633U 18074B   24358.91907453 -.00000008  00000+0  00000+0 0  9996
2 43633   0.0427 186.4236 0001307  72.6155 333.7597  1.00269970 22927
AT&T T-16               
1 44333U 19034A   24360.31199564 -.00000088  00000+0  00000+0 0  9992
2 44333   0.0191  20.1303 0001080 104.0711 341.5561  1.00269715 20235
INTELSAT 39 (IS-39)     
1 44476U 19049B   24360.39795245  .00000060  00000+0  00000+0 0  9991
2 44476   0.0013 355.3289 0000747 142.9904 161.2903  1.00271191 19726
GALAXY 30 (G-30)        
1 46114U 20056C   24360.43279156  .00000064  00000+0  00000+0 0  9999
2 46114   0.0145  33.4913 0002019 241.0916 210.6382  1.00272594 15891
GALAXY 33 (G-33)        
1 54026U 22128A   24360.62090729  .00000106  00000+0  00000+0 0  9997
2 54026   0.0149 334.0544 0001724 290.5268 280.5711  1.00273284  8348
GALAXY 34 (G-34)        
1 54027U 22128B   24359.64757167  .00000083  00000+0  00000+0 0  9998
2 54027   0.0235 353.4421 0001604 277.1164 287.2995  1.00272025  8505
GALAXY 31 (G-31)        
1 54243U 22153A   24360.43357348  .00000040  00000+0  00000+0 0  9995
2 54243   0.0145 305.2376 0001379 340.8998 203.3848  1.00272796  1730
GALAXY 32 (G-32)        
1 54244U 22153B   24357.42549437 -.00000157  00000+0  00000+0 0  9993
2 54244   0.0092 341.6053 0002017 335.7857 196.2495  1.00271421  7711
GALAXY 35 (G-35)        
1 54741U 22170A   24360.36763112 -.00000135  00000+0  00000+0 0  9995
2 54741   0.0162 319.4962 0002021 315.3849 218.7324  1.00271644  7496
GALAXY 36 (G-36)        
1 54742U 22170B   24359.90496090 -.00000159  00000+0  00000+0 0  9998
2 54742   0.0192  42.5750 0000777  14.1532 273.9679  1.00271574  7362
GALAXY 37 (G-37)        
1 57493U 23112A   24360.43235715  .00000075  00000+0  00000+0 0  9992
2 57493   0.0092 354.6879 0002031 284.6894 203.7118  1.00273383  5149
